satname,norad_id,inclination_deg,eccentricity,mean_motion_rev_per_day,perigee_km,apogee_km,l1,l2
STARLINK-1309,45414,53.0543,0.0001677,15.06400417,546.0488991547918,548.3716606324688,1 45414U 20019BG  25264.47702513  .00001386  00000+0  11190-3 0  9990,2 45414  53.0543 176.2461 0001677  91.3137 268.8044 15.06400417304346
STARLINK-1316,45415,53.0528,0.000137,15.06378989,546.3271728008804,548.2247359503799,1 45415U 20019BH  25264.17111665 -.00002576  00000+0 -15420-3 0  9994,2 45415  53.0528 177.6150 0001370  83.8256 276.2889 15.06378989304335
STARLINK-1318,45416,53.054,0.0001025,15.55465329,400.1054715470682,401.4951536961544,1 45416U 20019BJ  25264.01603961  .00042823  00000+0  62040-3 0  9990,2 45416  53.0540 160.7882 0001025 131.5979 228.5119 15.55465329304543
STARLINK-1286,45417,53.0517,0.0001224,15.06409111,546.3359749306201,548.0312934218655,1 45417U 20019BK  25264.14252321  .00000950  00000+0  82648-4 0  9997,2 45417  53.0517 207.7464 0001224  87.8313 272.2816 15.06409111304163
STARLINK-1308,45419,53.0528,0.000159,15.06399196,546.1128912710647,548.315152896088,1 45419U 20019BM  25264.53692203  .00000297  00000+0  38864-4 0  9994,2 45419  53.0528 205.9779 0001590  93.1436 266.9735 15.06399196303977
STARLINK-1329,45531,53.054,0.0001322,15.06405536,546.2790621112454,548.1101197838916,1 45531U 20025A   25264.37289687  .00002335  00000+0  17560-3 0  9990,2 45531  53.0540 146.7082 0001322  77.5377 282.5760 15.06405536299576
STARLINK-1338,45532,53.0554,0.0001443,15.06403811,546.2005516853205,548.1992039082534,1 45532U 20025B   25264.38396372  .00001939  00000+0  14904-3 0  9990,2 45532  53.0554 146.6613 0001443  96.8441 263.2713 15.06403811299579
STARLINK-1350,45535,53.0748,0.0002771,15.31011026,470.8961678889418,474.69295416006116,1 45535U 20025E   25264.28944272  .00012276  00000+0  41541-3 0  9993,2 45535  53.0748 105.7080 0002771 117.4557 242.6725 15.31011026300167
STARLINK-1362,45538,53.0528,0.0001596,15.06406922,546.085060842508,548.295625330421,1 45538U 20025H   25263.95172819  .00002690  00000+0  19937-3 0  9992,2 45538  53.0528 148.3205 0001596  97.2092 262.9079 15.06406922299519
STARLINK-1368,45540,53.0529,0.0001235,15.06384745,546.4030263895984,548.113599031838,1 45540U 20025K   25263.95640834 -.00001357  00000+0 -72230-4 0  9999,2 45540  53.0529 148.5835 0001235  85.0160 275.0970 15.06384745299507
STARLINK-1371,45542,53.0533,0.0001334,15.06388138,546.3240671509411,548.1717598458617,1 45542U 20025M   25264.39133615  .00011504  00000+0  79019-3 0  9998,2 45542  53.0533 146.6309 0001334  96.3720 263.7421 15.06388138299578
STARLINK-1372,45543,53.0541,0.0001412,15.06393739,546.2528851421048,548.2086089938775,1 45543U 20025N   25263.96376962  .00003031  00000+0  22233-3 0  9997,2 45543  53.0541 148.5504 0001412  85.1502 274.9648 15.06393739298608
STARLINK-1373,45544,53.0541,0.0001438,15.06412781,546.1765268012887,548.1682457807865,1 45544U 20025P   25264.38026554 -.00001452  00000+0 -78575-4 0  9992,2 45544  53.0541 146.6809 0001438  90.2865 269.8289 15.06412781299573
STARLINK-1294,45551,53.0501,0.0004923,15.51025524,410.38696810961665,417.0742409530376,1 45551U 20025W   25263.96741464  .00133150  00000+0  22216-2 0  9995,2 45551  53.0501  95.9777 0004923 208.4004 151.6736 15.51025524300255
STARLINK-1323,45553,53.0362,0.0005043,15.89092599,301.4554945193431,308.19593071128656,1 45553U 20025Y   25264.58335648  .00202836  00000+0  67835-3 0  9994,2 45553  53.0362  75.7728 0005043  89.4233 183.4202 15.89092599  6058
STARLINK-1325,45554,53.0598,0.0001097,15.46410524,426.4901276614728,427.98322664624084,1 45554U 20025Z   25264.22182784  .00069866  00000+0  13857-2 0  9995,2 45554  53.0598  86.5330 0001097 288.3269  71.7618 15.46410524300415
STARLINK-1327,45555,53.0541,0.0001521,15.06402775,546.1497087539501,548.2563971980653,1 45555U 20025AA  25264.35262946  .00003217  00000+0  23475-3 0  9995,2 45555  53.0541 126.8021 0001521  88.5096 271.6067 15.06402775299847
STARLINK-1336,45557,53.039,0.0005971,15.84646185,313.3233209504533,321.3190371078499,1 45557U 20025AC  25264.58335648  .00300507  00000+0  12338-2 0  9999,2 45557  53.0390  81.3291 0005971 113.2925 267.4812 15.84646185  5998
STARLINK-1342,45558,53.0437,0.0002079,15.94604426,288.0306543884062,290.8030232745914,1 45558U 20025AD  25264.58335648  .00352486  59900-4  91251-3 0  9993,2 45558  53.0437  77.8966 0002079  99.4176 341.4963 15.94604426  6016
STARLINK-1355,45563,53.0282,0.0010683,16.16386143,222.32331301740032,236.44093838136996,1 45563U 20025AJ  25264.55664628  .01131163  91141-3  75472-3 0  9996,2 45563  53.0282   6.4074 0010683 339.3647  20.6957 16.16386143301540
STARLINK-1356,45564,53.0525,0.0001365,15.06398112,546.2720335243903,548.1626552604084,1 45564U 20025AK  25263.89188954  .00000155  00000+0  29284-4 0  9992,2 45564  53.0525 128.8695 0001365  99.3550 260.7594 15.06398112299774
STARLINK-1357,45565,53.0665,0.000869,15.25088192,484.55175943675204,496.4894863853715,1 45565U 20025AL  25264.31674022  .00059216  00000+0  23287-2 0  9994,2 45565  53.0665 118.2769 0008690 113.2557 246.9356 15.25088192299964
STARLINK-1361,45567,53.0532,0.000124,15.06401104,546.349431537732,548.0669171409681,1 45567U 20025AN  25264.04301543  .00000254  00000+0  35955-4 0  9996,2 45567  53.0532 128.1915 0001240  93.2831 266.8300 15.06401104299802
STARLINK-1363,45568,53.0543,0.000144,15.06403228,546.2044158331591,548.1989133685638,1 45568U 20025AP  25264.32317073 -.00000465  00000+0 -12299-4 0  9995,2 45568  53.0543 127.1769 0001440 108.7179 251.3967 15.06403228299830
STARLINK-1366,45569,53.0533,0.000143,15.06399696,546.2221646776297,548.2028146316707,1 45569U 20025AQ  25264.31208172 -.00000115  00000+0  11173-4 0  9995,2 45569  53.0533 126.9802 0001430  93.4419 266.6734 15.06399696299835
STARLINK-1376,45570,53.0533,0.0001147,15.06404942,546.4020757191702,547.9907472037585,1 45570U 20025AR  25264.03932810  .00001610  00000+0  12696-3 0  9999,2 45570  53.0533 128.2102 0001147  83.9255 276.1865 15.06404942299799
STARLINK-1320,45572,53.06,0.0008488,15.3528032,454.2837085883157,465.89227933806706,1 45572U 20025AT  25264.46295139  .00092689  00000+0  26429-2 0  9998,2 45572  53.0600  78.8946 0008488 175.2361 184.8723 15.35280320300548
STARLINK-1321,45573,53.0543,0.0001476,15.06406285,546.1701167814563,548.2144739894547,1 45573U 20025AU  25264.29088489  .00000856  00000+0  76361-4 0  9995,2 45573  53.0543 117.0805 0001476  89.9361 270.1797 15.06406285299675
STARLINK-1328,45576,53.0539,0.0002003,15.5434989,402.6846068787627,405.40154821782835,1 45576U 20025AX  25263.87019428  .00149157  00000+0  22032-2 0  9990,2 45576  53.0539 111.1200 0002003 178.8174 181.2841 15.54349890300030
STARLINK-1331,45578,53.0532,0.0001206,15.06401267,546.372478200703,548.042871336258,1 45578U 20025AZ  25263.87069821  .00001191  00000+0  98796-4 0  9991,2 45578  53.0532 118.9654 0001206  88.9672 271.1455 15.06401267299920
STARLINK-1333,45580,53.0533,0.0001263,15.06406061,546.3183127317889,548.06765108522,1 45580U 20025BB  25264.34156638  .00000746  00000+0  68969-4 0  9994,2 45580  53.0533 126.8537 0001263  93.1471 266.9662 15.06406061299840
STARLINK-1335,45581,53.0538,0.0001496,15.06401753,546.1701539104533,548.2422165914813,1 45581U 20025BC  25263.88175349  .00000082  00000+0  24373-4 0  9997,2 45581  53.0538 118.9165 0001496  90.7143 269.4017 15.06401753299915
STARLINK-1337,45582,53.0544,0.000153,15.06408182,546.1269069075497,548.2460558928587,1 45582U 20025BD  25264.30194551  .00002944  00000+0  21640-3 0  9994,2 45582  53.0544 117.0308 0001530  92.7110 267.4055 15.06408182299976
STARLINK-1347,45586,53.0596,0.0007903,15.24417892,487.1040570473124,497.9638395481925,1 45586U 20025BH  25264.29527924  .00060317  00000+0  24197-2 0  9997,2 45586  53.0596 108.6816 0007903 117.8466 242.3333 15.24417892300084
STARLINK-1360,45588,53.0504,0.0002787,15.66601009,366.7578764368718,370.5185289348483,1 45588U 20025BK  25264.56188862  .00077141  00000+0  72149-3 0  9997,2 45588  53.0504  38.4393 0002787 343.8076  16.2849 15.66601009301103
STARLINK-1364,45589,53.0549,0.000153,15.06401498,546.1473891609157,548.2665444147533,1 45589U 20025BL  25264.30563531  .00001574  00000+0  12451-3 0  9997,2 45589  53.0549 117.0159 0001530  91.2422 268.8742 15.06401498299973
STARLINK-1365,45590,53.0537,0.0001314,15.06402826,546.2929070064147,548.1128863312579,1 45590U 20025BM  25264.38764507  .00002111  00000+0  16054-3 0  9994,2 45590  53.0537 146.6459 0001314  92.1069 268.0070 15.06402826299589
STARLINK-1443,45660,53.0531,0.0001199,15.06403676,546.369943609373,548.0306394918862,1 45660U 20035D   25263.84213067  .00002491  00000+0  18603-3 0  9996,2 45660  53.0531 109.0959 0001199  88.0818 272.0308 15.06403676293134
STARLINK-1446,45663,53.0261,0.0006275,15.29467189,473.10213258812655,481.70583652374444,1 45663U 20035G   25264.44877174  .00088288  00000+0  30238-2 0  9996,2 45663  53.0261  76.4294 0006275 128.3940 231.7623 15.29467189293642
STARLINK-1448,45665,53.0532,0.0001207,15.06404451,546.3620283735308,548.0338042223257,1 45665U 20035J   25263.97850277  .00001559  00000+0  12352-3 0  9994,2 45665  53.0532 108.4789 0001207  92.5835 267.5292 15.06404451293147
STARLINK-1451,45668,53.0528,0.0001229,15.06406623,546.3401366284461,548.0423823146239,1 45668U 20035M   25263.98222783  .00001450  00000+0  11623-3 0  9993,2 45668  53.0528 108.7816 0001229  92.5472 267.5658 15.06406623293150
STARLINK-1452,45669,53.0482,0.0004627,15.21539089,498.0145095948883,504.3806458130957,1 45669U 20035N   25264.49683746  .00053372  00000+0  23363-2 0  9994,2 45669  53.0482  92.4854 0004627 191.9744 168.1142 15.21539089293426
STARLINK-1453,45670,53.0553,0.000134,15.06403497,546.2728448870903,548.1288354282533,1 45670U 20035P   25264.19135979  .00000747  00000+0  69052-4 0  9998,2 45670  53.0553  77.5292 0001340  70.4242 289.6891 15.06403497293493
